{
  "norad_id": 67292,
  "name": "SITRO-AIS-64",
  "history": [
    {
      "epoch": "2026-03-28T22:13:44.334912Z",
      "apogee_km": 500.7815597723056,
      "perigee_km": 490.22914403366394,
      "latitude_deg": -4.321372938819781e-05,
      "longitude_deg": 4.284728995266734,
      "height_km": 497.93347638489445,
      "semi_major_axis_km": 6873.642351902984,
      "eccentricity": 0.0007676,
      "inclination_deg": 97.3983,
      "raan_deg": 164.0591,
      "arg_perigee_deg": 277.3417,
      "mean_anomaly_deg": 82.6947,
      "mean_motion_rev_day": 15.23429514
    },
    {
      "epoch": "2026-03-29T04:32:04.434144Z",
      "apogee_km": 500.7540902973151,
      "perigee_km": 490.190727357829,
      "latitude_deg": -6.652137671834797e-05,
      "longitude_deg": -90.29897582470487,
      "height_km": 497.9939897625025,
      "semi_major_axis_km": 6873.609408827572,
      "eccentricity": 0.0007684,
      "inclination_deg": 97.3983,
      "raan_deg": 164.3181,
      "arg_perigee_deg": 276.3135,
      "mean_anomaly_deg": 83.7226,
      "mean_motion_rev_day": 15.23440466
    },
    {
      "epoch": "2026-03-30T04:10:48.808128Z",
      "apogee_km": 500.708746233473,
      "perigee_km": 490.0589130600183,
      "latitude_deg": 1.6606008062115167e-05,
      "longitude_deg": -84.98357027255271,
      "height_km": 498.2826879400744,
      "semi_major_axis_km": 6873.520829646745,
      "eccentricity": 0.0007747,
      "inclination_deg": 97.3983,
      "raan_deg": 165.2895,
      "arg_perigee_deg": 272.1924,
      "mean_anomaly_deg": 87.8426,
      "mean_motion_rev_day": 15.23469915
    },
    {
      "epoch": "2026-03-30T04:10:48.808992Z",
      "apogee_km": 500.70902117430614,
      "perigee_km": 490.05863811918516,
      "latitude_deg": 2.1177888907515545e-05,
      "longitude_deg": -84.98357447278323,
      "height_km": 498.2826774194017,
      "semi_major_axis_km": 6873.520829646745,
      "eccentricity": 0.00077474,
      "inclination_deg": 97.3983,
      "raan_deg": 165.2895,
      "arg_perigee_deg": 272.1924,
      "mean_anomaly_deg": 87.8426,
      "mean_motion_rev_day": 15.23469915
    },
    {
      "epoch": "2026-03-30T05:45:23.693184Z",
      "apogee_km": 500.70197797002675,
      "perigee_km": 490.0484464518322,
      "latitude_deg": -4.15675261921991e-05,
      "longitude_deg": -108.62885576465969,
      "height_km": 498.292530762095,
      "semi_major_axis_km": 6873.51221221093,
      "eccentricity": 0.00077497,
      "inclination_deg": 97.3982,
      "raan_deg": 165.3543,
      "arg_perigee_deg": 271.9931,
      "mean_anomaly_deg": 88.0418,
      "mean_motion_rev_day": 15.2347278
    },
    {
      "epoch": "2026-03-30T21:31:12.278496Z",
      "apogee_km": 500.67127098836863,
      "perigee_km": 489.9636661481436,
      "latitude_deg": 4.9667842576867446e-05,
      "longitude_deg": 14.918910639611866,
      "height_km": 498.494625686433,
      "semi_major_axis_km": 6873.454468568256,
      "eccentricity": 0.00077891,
      "inclination_deg": 97.3982,
      "raan_deg": 166.0019,
      "arg_perigee_deg": 269.2029,
      "mean_anomaly_deg": 90.8316,
      "mean_motion_rev_day": 15.23491978
    },
    {
      "epoch": "2026-03-31T19:35:19.131360Z",
      "apogee_km": 500.5882874285953,
      "perigee_km": 489.90017961047124,
      "latitude_deg": 6.291793946466999e-06,
      "longitude_deg": 43.89063993106426,
      "height_km": 498.77303838604496,
      "semi_major_axis_km": 6873.3812335195325,
      "eccentricity": 0.0007775,
      "inclination_deg": 97.3982,
      "raan_deg": 166.9085,
      "arg_perigee_deg": 265.4275,
      "mean_anomaly_deg": 94.6074,
      "mean_motion_rev_day": 15.23516327
    },
    {
      "epoch": "2026-04-01T19:13:59.405664Z",
      "apogee_km": 500.5183263889512,
      "perigee_km": 489.8303272757257,
      "latitude_deg": 2.813097656859476e-05,
      "longitude_deg": 49.22308279916583,
      "height_km": 499.09677137340526,
      "semi_major_axis_km": 6873.311326832338,
      "eccentricity": 0.0007775,
      "inclination_deg": 97.398,
      "raan_deg": 167.8798,
      "arg_perigee_deg": 261.1781,
      "mean_anomaly_deg": 98.8576,
      "mean_motion_rev_day": 15.2353957
    },
    {
      "epoch": "2026-04-02T18:52:38.111808Z",
      "apogee_km": 500.4179285532391,
      "perigee_km": 489.71085542479886,
      "latitude_deg": -3.674223573301646e-05,
      "longitude_deg": 54.562188301130206,
      "height_km": 499.36735892643054,
      "semi_major_axis_km": 6873.201391989019,
      "eccentricity": 0.0007789,
      "inclination_deg": 97.3975,
      "raan_deg": 168.8512,
      "arg_perigee_deg": 257.0472,
      "mean_anomaly_deg": 102.9895,
      "mean_motion_rev_day": 15.23576123
    },
    {
      "epoch": "2026-04-02T22:01:47.086176Z",
      "apogee_km": 500.41223445521155,
      "perigee_km": 489.67852299800234,
      "latitude_deg": 1.1115322683596268e-05,
      "longitude_deg": 7.2748207314991875,
      "height_km": 499.39424356550734,
      "semi_major_axis_km": 6873.182378726607,
      "eccentricity": 0.00078084,
      "inclination_deg": 97.3974,
      "raan_deg": 168.9807,
      "arg_perigee_deg": 256.5769,
      "mean_anomaly_deg": 103.4598,
      "mean_motion_rev_day": 15.23582445
    }
  ]
}